DLR-TUBSAT              
1 25757U 99029B   21037.54804064 -.00000003  00000-0  10800-4 0  9996
2 25757  98.4436 331.7874 0014194 188.6063 171.4890 14.51435459149348
CXO                     
1 25867U 99040B   21038.53072403  .00000397  00000-0  00000+0 0  9996
2 25867  57.9449 259.9569 8112248 226.4319   0.5147  0.37801825 21088
ABS-7                   
1 25894U 99046A   21037.50261478  .00000101  00000-0  00000-0 0  9994
2 25894   1.5350  92.7634 0005588 234.0487  44.7745  1.00135256 77502
ABS-6                   
1 25924U 99053A   21037.57256762 -.00000127  00000-0  00000-0 0  9992
2 25924   0.0517 294.2214 0002148  10.9626 196.8555  1.00270901 78240
NAVSTAR 46 (USA 145)    
1 25933U 99055A   21037.60469345 -.00000078  00000-0  00000-0 0  9996
2 25933  52.3822  19.9302 0151253 119.4564  56.5331  2.00516526156335
AMC-4 (GE-4)            
1 25954U 99060A   21037.62020494  .00000080  00000-0  00000-0 0  9997
2 25954   0.2921  97.4736 0002649 226.8585 260.9722  1.00270861 23934
UFO 10 (USA 146)        
1 25967U 99063A   21037.34367081 -.00000196  00000-0  00000-0 0  9998
2 25967   8.1278  34.9718 0003550 309.2441 253.2810  1.00265524 77724
ORBCOMM FM30            
1 25980U 99065A   21037.34399218 -.00000025  00000-0  42103-4 0  9997
2 25980  45.0341  28.3240 0006965 334.7600  25.2905 14.32965544105902
ORBCOMM FM31            
1 25981U 99065B   21037.33038511  .00000008  00000-0  53783-4 0  9999
2 25981  45.0253  23.1582 0003804 342.3950  17.6764 14.32980437105499
ORBCOMM FM32            
1 25982U 99065C   21037.34475374 -.00000062  00000-0  28769-4 0  9990
2 25982  45.0190  28.7509 0005819   0.4735 359.6116 14.32158684106268
ORBCOMM FM33            
1 25983U 99065D   21037.53702644  .00000059  00000-0  69465-4 0  9998
2 25983  45.0315 326.0966 0009962   4.9341 164.8312 14.35219603107160
ORBCOMM FM36            
1 25984U 99065E   21037.40361739  .00000206  00000-0  12573-3 0  9992
2 25984  45.0392  31.4434 0005768 275.9296  84.0893 14.32989022105916
ORBCOMM FM35            
1 25985U 99065F   21037.41084373  .00000021  00000-0  58657-4 0  9999
2 25985  45.0419  32.7474 0002981 343.5747  16.5003 14.33011162106255
XMM-NEWTON              
1 25989U 99066A   21038.88797796  .00000165  00000-0  00000-0 0  9990
2 25989  70.9697 315.0605 6771207  91.4701   0.3026  0.50133636 13209
DMSP 5D-3 F15 (USA 147) 
1 25991U 99067A   21037.54290339 -.00000096  00000-0 -25321-4 0  9999
2 25991  99.0013  17.0560 0010286 150.9856 317.2276 14.16462602 93563
TERRA                   
1 25994U 99068A   21037.55938891  .00000035  00000-0  17712-4 0  9992
2 25994  98.1900 114.3039 0001362  95.5436  11.3617 14.57124827124280
CELESTIS-03 & TAURUS R/B
1 26034U 99070C   21037.59300280  .00001530  00000-0  95546-4 0  9992
2 26034  98.2716 354.7868 0012722  15.0776 345.0829 15.11173551146070
GALAXY 11 (G-11)        
1 26038U 99071A   21037.54509870 -.00000171  00000-0  00000-0 0  9996
2 26038   1.7793  94.5104 0000552 275.0968 230.3912  1.00271078 77460
USA 148                 
1 26052U 00001A   21037.58789918  .00000030  00000-0  00000-0 0  9997
2 26052   8.7684  45.2954 0002007 308.8753 174.6639  1.00270589 13341
GLOBALSTAR M063         
1 26081U 00008A   21037.59413279 -.00000080  00000-0  44333-4 0  9998
2 26081  51.9981 343.0464 0004637 142.9122  28.1491 11.86124592968701
MTI                     
1 26102U 00014A   21037.43577061  .00007293  00000-0  96388-4 0  9991
2 26102  97.4769 297.2321 0008413  85.2812 274.9409 15.58637892160920
ASIASTAR                
1 26107U 00016A   21037.57271747 -.00000344  00000-0  00000-0 0  9998
2 26107   4.5399  75.6700 0003946 249.9847 122.4307  1.00269056 76302
IMAGE                   
1 26113U 00017A   21036.30031368 -.00000688  00000-0 -73213-2 0  9999
2 26113  94.9247 281.0046 7687249 154.0256 285.1840  1.68647560128481
USA 149 (DSP 20)        
1 26356U 00024A   21037.59814253  .00000087  00000-0  00000-0 0  9993
2 26356  11.7191  24.8041 0000669 182.8118 339.0801  1.00263239 13298
NAVSTAR 47 (USA 150)    
1 26360U 00025A   21037.43650479 -.00000048  00000-0  00000-0 0  9998
2 26360  53.6794  99.4368 0058083 165.3559 293.6256  2.00563376152025
EUTELSAT 80A            
1 26369U 00028A   21037.16299347  .00000112  00000-0  00000-0 0  9994
2 26369   3.9271  79.5298 0004639 242.6091 281.2377  1.00272708 75814
TDRS 8                  
1 26388U 00034A   21037.50976812 -.00000245  00000-0  00000-0 0  9997
2 26388   9.5925  45.9417 0020279 317.7059  46.1027  1.00273655 75563
NAVSTAR 48 (USA 151)    
1 26407U 00040A   21037.20738361 -.00000017  00000-0  00000-0 0  9995
2 26407  55.8184 292.9360 0182097 282.3577 332.1371  2.00564303150698
CLUSTER II-FM7 (SAMBA)  
1 26410U 00041A   21038.55879476 -.00000169  00000-0  00000+0 0  9999
2 26410 132.4436 343.4559 4701727 189.1782 359.2654  0.44227232 23381
CLUSTER II-FM6 (SALSA)  
1 26411U 00041B   21038.62771190 -.00000225  00000-0  00000+0 0  9995
2 26411 132.8819 345.0462 6125935 194.3045 359.3020  0.44223025 22692
INTELSAT 9 (IS-9)       
1 26451U 00043A   21037.60186838 -.00000298  00000-0  00000-0 0  9998
2 26451   6.1762  64.4282 0002129 262.0729 337.1014  1.00270714 24524
