OBJECT_NAME,OBJECT_ID,EPOCH,MEAN_MOTION,ECCENTRICITY,INCLINATION,RA_OF_ASC_NODE,ARG_OF_PERICENTER,MEAN_ANOMALY,EPHEMERIS_TYPE,CLASSIFICATION_TYPE,NORAD_CAT_ID,ELEMENT_SET_NO,REV_AT_EPOCH,BSTAR,MEAN_MOTION_DOT,MEAN_MOTION_DDOT
DLR-TUBSAT,1999-029B,2021-02-06T13:09:10.711296,14.51435459,.0014194,98.4436,331.7874,188.6063,171.4890,0,U,25757,999,14934,.108E-4,-.3E-7,0
CXO,1999-040B,2021-02-07T12:44:14.556192,0.37801825,.8112248,57.9449,259.9569,226.4319,0.5147,0,U,25867,999,2108,0,.397E-5,0
ABS-7,1999-046A,2021-02-06T12:03:45.916992,1.00135256,.0005588,1.5350,92.7634,234.0487,44.7745,0,U,25894,999,7750,0,.101E-5,0
ABS-6,1999-053A,2021-02-06T13:44:29.842368,1.00270901,.0002148,0.0517,294.2214,10.9626,196.8555,0,U,25924,999,7824,0,-.127E-5,0
NAVSTAR 46 (USA 145),1999-055A,2021-02-06T14:30:45.514080,2.00516526,.0151253,52.3822,19.9302,119.4564,56.5331,0,U,25933,999,15633,0,-.78E-6,0
AMC-4 (GE-4),1999-060A,2021-02-06T14:53:05.706816,1.00270861,.0002649,0.2921,97.4736,226.8585,260.9722,0,U,25954,999,2393,0,.8E-6,0
UFO 10 (USA 146),1999-063A,2021-02-06T08:14:53.157984,1.00265524,.000355,8.1278,34.9718,309.2441,253.2810,0,U,25967,999,7772,0,-.196E-5,0
ORBCOMM FM30,1999-065A,2021-02-06T08:15:20.924352,14.32965544,.0006965,45.0341,28.3240,334.7600,25.2905,0,U,25980,999,10590,.42103E-4,-.25E-6,0
ORBCOMM FM31,1999-065B,2021-02-06T07:55:45.273504,14.32980437,.0003804,45.0253,23.1582,342.3950,17.6764,0,U,25981,999,10549,.53783E-4,.8E-7,0
ORBCOMM FM32,1999-065C,2021-02-06T08:16:26.723136,14.32158684,.0005819,45.0190,28.7509,0.4735,359.6116,0,U,25982,999,10626,.28769E-4,-.62E-6,0
ORBCOMM FM33,1999-065D,2021-02-06T12:53:19.084416,14.35219603,.0009962,45.0315,326.0966,4.9341,164.8312,0,U,25983,999,10716,.69465E-4,.59E-6,0
ORBCOMM FM36,1999-065E,2021-02-06T09:41:12.542496,14.32989022,.0005768,45.0392,31.4434,275.9296,84.0893,0,U,25984,999,10591,.12573E-3,.206E-5,0
ORBCOMM FM35,1999-065F,2021-02-06T09:51:36.898272,14.33011162,.0002981,45.0419,32.7474,343.5747,16.5003,0,U,25985,999,10625,.58657E-4,.21E-6,0
XMM-NEWTON,1999-066A,2021-02-07T21:18:41.295744,0.50133636,.6771207,70.9697,315.0605,91.4701,0.3026,0,U,25989,999,1320,0,.165E-5,0
DMSP 5D-3 F15 (USA 147),1999-067A,2021-02-06T13:01:46.852896,14.16462602,.0010286,99.0013,17.0560,150.9856,317.2276,0,U,25991,999,9356,-.25321E-4,-.96E-6,0
TERRA,1999-068A,2021-02-06T13:25:31.201824,14.57124827,.0001362,98.1900,114.3039,95.5436,11.3617,0,U,25994,999,12428,.17712E-4,.35E-6,0
CELESTIS-03 & TAURUS R/B,1999-070C,2021-02-06T14:13:55.441920,15.11173551,.0012722,98.2716,354.7868,15.0776,345.0829,0,U,26034,999,14607,.95546E-4,.153E-4,0
GALAXY 11 (G-11),1999-071A,2021-02-06T13:04:56.527680,1.00271078,.0000552,1.7793,94.5104,275.0968,230.3912,0,U,26038,999,7746,0,-.171E-5,0
USA 148,2000-001A,2021-02-06T14:06:34.489152,1.00270589,.0002007,8.7684,45.2954,308.8753,174.6639,0,U,26052,999,1334,0,.3E-6,0
GLOBALSTAR M063,2000-008A,2021-02-06T14:15:33.073056,11.86124592,.0004637,51.9981,343.0464,142.9122,28.1491,0,U,26081,999,96870,.44333E-4,-.8E-6,0
MTI,2000-014A,2021-02-06T10:27:30.580704,15.58637892,.0008413,97.4769,297.2321,85.2812,274.9409,0,U,26102,999,16092,.96388E-4,.7293E-4,0
ASIASTAR,2000-016A,2021-02-06T13:44:42.789408,1.00269056,.0003946,4.5399,75.6700,249.9847,122.4307,0,U,26107,999,7630,0,-.344E-5,0
IMAGE,2000-017A,2021-02-05T07:12:27.101952,1.68647560,.7687249,94.9247,281.0046,154.0256,285.1840,0,U,26113,999,12848,-.73213E-2,-.688E-5,0
USA 149 (DSP 20),2000-024A,2021-02-06T14:21:19.514592,1.00263239,.0000669,11.7191,24.8041,182.8118,339.0801,0,U,26356,999,1329,0,.87E-6,0
NAVSTAR 47 (USA 150),2000-025A,2021-02-06T10:28:34.013856,2.00563376,.0058083,53.6794,99.4368,165.3559,293.6256,0,U,26360,999,15202,0,-.48E-6,0
EUTELSAT 80A,2000-028A,2021-02-06T03:54:42.635808,1.00272708,.0004639,3.9271,79.5298,242.6091,281.2377,0,U,26369,999,7581,0,.112E-5,0
TDRS 8,2000-034A,2021-02-06T12:14:03.965568,1.00273655,.0020279,9.5925,45.9417,317.7059,46.1027,0,U,26388,999,7556,0,-.245E-5,0
NAVSTAR 48 (USA 151),2000-040A,2021-02-06T04:58:37.943904,2.00564303,.0182097,55.8184,292.9360,282.3577,332.1371,0,U,26407,999,15069,0,-.17E-6,0
CLUSTER II-FM7 (SAMBA),2000-041A,2021-02-07T13:24:39.867264,0.44227232,.4701727,132.4436,343.4559,189.1782,359.2654,0,U,26410,999,2338,0,-.169E-5,0
CLUSTER II-FM6 (SALSA),2000-041B,2021-02-07T15:03:54.308160,0.44223025,.6125935,132.8819,345.0462,194.3045,359.3020,0,U,26411,999,2269,0,-.225E-5,0
INTELSAT 9 (IS-9),2000-043A,2021-02-06T14:26:41.428032,1.00270714,.0002129,6.1762,64.4282,262.0729,337.1014,0,U,26451,999,2452,0,-.298E-5,0
